LANDSAT 9               
1 49260U 21088A   23219.11525323  .00000556  00000+0  13354-3 0  9993
2 49260  98.2272 288.3910 0001354 107.5926 252.5421 14.57105263 98807
